{
  "norad_id": 43539,
  "name": "BEIDOU-2 IGSO-7",
  "history": [
    {
      "epoch": "2026-03-27T15:08:38.812992Z",
      "apogee_km": 36214.60873266908,
      "perigee_km": 35356.38566725522,
      "latitude_deg": 1.881325909239196,
      "longitude_deg": 112.86659364168861,
      "height_km": 36029.467457803745,
      "semi_major_axis_km": 42163.63419996216,
      "eccentricity": 0.01017729,
      "inclination_deg": 55.1838,
      "raan_deg": 163.7722,
      "arg_perigee_deg": 237.2605,
      "mean_anomaly_deg": 124.1194,
      "mean_motion_rev_day": 1.00275701
    },
    {
      "epoch": "2026-04-07T18:43:43.155840Z",
      "apogee_km": 36216.63547524164,
      "perigee_km": 35353.0616376714,
      "latitude_deg": 48.629525183355085,
      "longitude_deg": 98.7320275053236,
      "height_km": 36218.68230289969,
      "semi_major_axis_km": 42162.98555645652,
      "eccentricity": 0.0102409,
      "inclination_deg": 55.1848,
      "raan_deg": 163.6748,
      "arg_perigee_deg": 237.2195,
      "mean_anomaly_deg": 189.0435,
      "mean_motion_rev_day": 1.00278015
    },
    {
      "epoch": "2026-04-08T14:32:49.564608Z",
      "apogee_km": 36216.834351654266,
      "perigee_km": 35355.53531668333,
      "latitude_deg": 4.262158188291029,
      "longitude_deg": 111.57541333613688,
      "height_km": 36048.72908916096,
      "semi_major_axis_km": 42164.321834168804,
      "eccentricity": 0.0102136,
      "inclination_deg": 55.1848,
      "raan_deg": 163.6675,
      "arg_perigee_deg": 237.2229,
      "mean_anomaly_deg": 127.1361,
      "mean_motion_rev_day": 1.00273248
    },
    {
      "epoch": "2026-04-19T17:29:56.306688Z",
      "apogee_km": 36221.48357767273,
      "perigee_km": 35348.63792312309,
      "latitude_deg": 44.99650260664452,
      "longitude_deg": 97.2757087183309,
      "height_km": 36227.78768789667,
      "semi_major_axis_km": 42163.19775039791,
      "eccentricity": 0.0103508,
      "inclination_deg": 55.1838,
      "raan_deg": 163.5701,
      "arg_perigee_deg": 237.4755,
      "mean_anomaly_deg": 182.0995,
      "mean_motion_rev_day": 1.00277258
    }
  ]
}